[{"OBJECT_NAME":"KUIPER-00152","OBJECT_ID":"2025-217L","EPOCH":"2026-02-01T21:39:42.017760","MEAN_MOTION":14.8109735,"ECCENTRICITY":0.00013348,"INCLINATION":51.8991,"RA_OF_ASC_NODE":188.8101,"ARG_OF_PERICENTER":56.2082,"MEAN_ANOMALY":303.9008,"EPHEMERIS_TYPE":0,"CLASSIFICATION_TYPE":"U","NORAD_CAT_ID":65772,"ELEMENT_SET_NO":999,"REV_AT_EPOCH":1975,"BSTAR":-0.00059106459,"MEAN_MOTION_DOT":-4.853e-5,"MEAN_MOTION_DDOT":0},{"OBJECT_NAME":"KUIPER-00153","OBJECT_ID":"2025-217M","EPOCH":"2026-02-01T15:55:31.378368","MEAN_MOTION":15.12492605,"ECCENTRICITY":0.00122621,"INCLINATION":51.8767,"RA_OF_ASC_NODE":195.3147,"ARG_OF_PERICENTER":199.8419,"MEAN_ANOMALY":160.2082,"EPHEMERIS_TYPE":0,"CLASSIFICATION_TYPE":"U","NORAD_CAT_ID":65773,"ELEMENT_SET_NO":999,"REV_AT_EPOCH":1964,"BSTAR":0.00063195317,"MEAN_MOTION_DOT":0.00010868,"MEAN_MOTION_DDOT":0},{"OBJECT_NAME":"KUIPER-00155","OBJECT_ID":"2025-217N","EPOCH":"2026-02-01T21:31:58.568160","MEAN_MOTION":15.22254285,"ECCENTRICITY":0.00055853,"INCLINATION":51.8797,"RA_OF_ASC_NODE":180.7524,"ARG_OF_PERICENTER":213.5163,"MEAN_ANOMALY":146.5464,"EPHEMERIS_TYPE":0,"CLASSIFICATION_TYPE":"U","NORAD_CAT_ID":65774,"ELEMENT_SET_NO":999,"REV_AT_EPOCH":1986,"BSTAR":0.00066629001,"MEAN_MOTION_DOT":0.00015241,"MEAN_MOTION_DDOT":0},{"OBJECT_NAME":"KUIPER-00156","OBJECT_ID":"2025-217P","EPOCH":"2026-02-01T22:00:01.999584","MEAN_MOTION":14.83447128,"ECCENTRICITY":0.00061838,"INCLINATION":51.9004,"RA_OF_ASC_NODE":183.8948,"ARG_OF_PERICENTER":344.8489,"MEAN_ANOMALY":178.8452,"EPHEMERIS_TYPE":0,"CLASSIFICATION_TYPE":"U","NORAD_CAT_ID":65775,"ELEMENT_SET_NO":999,"REV_AT_EPOCH":482,"BSTAR":0.0013488242,"MEAN_MOTION_DOT":0.00010979,"MEAN_MOTION_DDOT":0},{"OBJECT_NAME":"KUIPER-00158","OBJECT_ID":"2025-217Q","EPOCH":"2026-02-01T16:28:17.007744","MEAN_MOTION":14.80110991,"ECCENTRICITY":6.127e-5,"INCLINATION":51.8952,"RA_OF_ASC_NODE":204.7829,"ARG_OF_PERICENTER":138.5493,"MEAN_ANOMALY":221.5516,"EPHEMERIS_TYPE":0,"CLASSIFICATION_TYPE":"U","NORAD_CAT_ID":65776,"ELEMENT_SET_NO":999,"REV_AT_EPOCH":1951,"BSTAR":0.0007003188,"MEAN_MOTION_DOT":5.144e-5,"MEAN_MOTION_DDOT":0},{"OBJECT_NAME":"KUIPER-00163","OBJECT_ID":"2025-217R","EPOCH":"2026-02-01T21:10:44.111136","MEAN_MOTION":14.81718001,"ECCENTRICITY":6.101e-5,"INCLINATION":51.8953,"RA_OF_ASC_NODE":206.3808,"ARG_OF_PERICENTER":145.5403,"MEAN_ANOMALY":214.56,"EPHEMERIS_TYPE":0,"CLASSIFICATION_TYPE":"U","NORAD_CAT_ID":65777,"ELEMENT_SET_NO":999,"REV_AT_EPOCH":1950,"BSTAR":0.0010279606,"MEAN_MOTION_DOT":7.963e-5,"MEAN_MOTION_DDOT":0},{"OBJECT_NAME":"KUIPER-00165","OBJECT_ID":"2025-217S","EPOCH":"2026-02-01T20:48:03.709440","MEAN_MOTION":14.79901053,"ECCENTRICITY":8.242e-5,"INCLINATION":51.8982,"RA_OF_ASC_NODE":194.0076,"ARG_OF_PERICENTER":78.9088,"MEAN_ANOMALY":281.1967,"EPHEMERIS_TYPE":0,"CLASSIFICATION_TYPE":"U","NORAD_CAT_ID":65778,"ELEMENT_SET_NO":999,"REV_AT_EPOCH":1967,"BSTAR":-0.00013892899,"MEAN_MOTION_DOT":-1.279e-5,"MEAN_MOTION_DDOT":0},{"OBJECT_NAME":"KUIPER-00166","OBJECT_ID":"2025-217T","EPOCH":"2026-02-01T22:00:01.999584","MEAN_MOTION":14.8849463,"ECCENTRICITY":0.00034386,"INCLINATION":51.8962,"RA_OF_ASC_NODE":181.6111,"ARG_OF_PERICENTER":283.8681,"MEAN_ANOMALY":305.193,"EPHEMERIS_TYPE":0,"CLASSIFICATION_TYPE":"U","NORAD_CAT_ID":65779,"ELEMENT_SET_NO":999,"REV_AT_EPOCH":503,"BSTAR":-0.0030142014,"MEAN_MOTION_DOT":-0.0002841,"MEAN_MOTION_DDOT":0},{"OBJECT_NAME":"KUIPER-00167","OBJECT_ID":"2025-217U","EPOCH":"2026-02-01T20:32:29.653728","MEAN_MOTION":14.79925792,"ECCENTRICITY":4.55e-5,"INCLINATION":51.894,"RA_OF_ASC_NODE":204.0337,"ARG_OF_PERICENTER":50.5123,"MEAN_ANOMALY":309.5879,"EPHEMERIS_TYPE":0,"CLASSIFICATION_TYPE":"U","NORAD_CAT_ID":65780,"ELEMENT_SET_NO":999,"REV_AT_EPOCH":1953,"BSTAR":-0.00052051657,"MEAN_MOTION_DOT":-4.186e-5,"MEAN_MOTION_DDOT":0},{"OBJECT_NAME":"KUIPER-00168","OBJECT_ID":"2025-217V","EPOCH":"2026-02-01T22:00:01.999584","MEAN_MOTION":14.80834973,"ECCENTRICITY":4.226e-5,"INCLINATION":51.8988,"RA_OF_ASC_NODE":186.2955,"ARG_OF_PERICENTER":114.6497,"MEAN_ANOMALY":104.665,"EPHEMERIS_TYPE":0,"CLASSIFICATION_TYPE":"U","NORAD_CAT_ID":65781,"ELEMENT_SET_NO":999,"REV_AT_EPOCH":563,"BSTAR":0.0010192722,"MEAN_MOTION_DOT":7.725e-5,"MEAN_MOTION_DDOT":0},{"OBJECT_NAME":"KUIPER-00169","OBJECT_ID":"2025-217W","EPOCH":"2026-02-01T20:51:57.068928","MEAN_MOTION":14.79896139,"ECCENTRICITY":6.028e-5,"INCLINATION":51.9004,"RA_OF_ASC_NODE":191.4964,"ARG_OF_PERICENTER":73.0194,"MEAN_ANOMALY":287.0835,"EPHEMERIS_TYPE":0,"CLASSIFICATION_TYPE":"U","NORAD_CAT_ID":65782,"ELEMENT_SET_NO":999,"REV_AT_EPOCH":1971,"BSTAR":-0.00012781322,"MEAN_MOTION_DOT":-1.194e-5,"MEAN_MOTION_DDOT":0},{"OBJECT_NAME":"KUIPER-00170","OBJECT_ID":"2025-217X","EPOCH":"2026-02-01T20:44:16.514592","MEAN_MOTION":14.7997625,"ECCENTRICITY":5.956e-5,"INCLINATION":51.8977,"RA_OF_ASC_NODE":196.514,"ARG_OF_PERICENTER":108.731,"MEAN_ANOMALY":251.3717,"EPHEMERIS_TYPE":0,"CLASSIFICATION_TYPE":"U","NORAD_CAT_ID":65783,"ELEMENT_SET_NO":999,"REV_AT_EPOCH":1964,"BSTAR":0.00081101171,"MEAN_MOTION_DOT":5.973e-5,"MEAN_MOTION_DDOT":0},{"OBJECT_NAME":"KUIPER-00171","OBJECT_ID":"2025-217Y","EPOCH":"2026-02-01T20:58:55.099776","MEAN_MOTION":16.05273734,"ECCENTRICITY":0.0004073,"INCLINATION":51.8424,"RA_OF_ASC_NODE":152.1906,"ARG_OF_PERICENTER":269.4798,"MEAN_ANOMALY":90.575,"EPHEMERIS_TYPE":0,"CLASSIFICATION_TYPE":"U","NORAD_CAT_ID":65784,"ELEMENT_SET_NO":999,"REV_AT_EPOCH":2024,"BSTAR":0.00087848,"MEAN_MOTION_DOT":0.00628756,"MEAN_MOTION_DDOT":0.00020261},{"OBJECT_NAME":"KUIPER-00172","OBJECT_ID":"2025-217Z","EPOCH":"2026-02-01T22:00:01.999584","MEAN_MOTION":15.09134726,"ECCENTRICITY":0.00037753,"INCLINATION":51.8828,"RA_OF_ASC_NODE":182.4197,"ARG_OF_PERICENTER":198.7545,"MEAN_ANOMALY":90.6992,"EPHEMERIS_TYPE":0,"CLASSIFICATION_TYPE":"U","NORAD_CAT_ID":65785,"ELEMENT_SET_NO":999,"REV_AT_EPOCH":552,"BSTAR":0.0013794817,"MEAN_MOTION_DOT":0.00021931,"MEAN_MOTION_DDOT":0},{"OBJECT_NAME":"KUIPER-00173","OBJECT_ID":"2025-217AA","EPOCH":"2026-02-01T19:39:22.015584","MEAN_MOTION":14.82344065,"ECCENTRICITY":7.577e-5,"INCLINATION":51.8999,"RA_OF_ASC_NODE":191.5486,"ARG_OF_PERICENTER":110.2396,"MEAN_ANOMALY":249.8649,"EPHEMERIS_TYPE":0,"CLASSIFICATION_TYPE":"U","NORAD_CAT_ID":65786,"ELEMENT_SET_NO":999,"REV_AT_EPOCH":1970,"BSTAR":0.00051150052,"MEAN_MOTION_DOT":3.907e-5,"MEAN_MOTION_DDOT":0},{"OBJECT_NAME":"KUIPER-00174","OBJECT_ID":"2025-217AB","EPOCH":"2026-02-01T22:00:01.999584","MEAN_MOTION":14.8113587,"ECCENTRICITY":9.849e-5,"INCLINATION":51.9022,"RA_OF_ASC_NODE":186.3168,"ARG_OF_PERICENTER":107.8451,"MEAN_ANOMALY":289.0717,"EPHEMERIS_TYPE":0,"CLASSIFICATION_TYPE":"U","NORAD_CAT_ID":65787,"ELEMENT_SET_NO":999,"REV_AT_EPOCH":575,"BSTAR":0.00069555251,"MEAN_MOTION_DOT":5.238e-5,"MEAN_MOTION_DDOT":0}]
