KUIPER-00152            
1 65772U 25217L   26032.90256965 -.00004853  00000+0 -59106-3 0  9994
2 65772  51.8991 188.8101 0001334  56.2082 303.9008 14.81097350 19756
KUIPER-00153            
1 65773U 25217M   26032.66355762  .00010868  00000+0  63195-3 0  9997
2 65773  51.8767 195.3147 0012262 199.8419 160.2082 15.12492605 19642
KUIPER-00155            
1 65774U 25217N   26032.89720565  .00015241  00000+0  66629-3 0  9995
2 65774  51.8797 180.7524 0005585 213.5163 146.5464 15.22254285 19869
KUIPER-00156            
1 65775U 25217P   26032.91668981  .00010979  00000+0  13488-2 0  9999
2 65775  51.9004 183.8948 0006183 344.8489 178.8452 14.83447128  4821
KUIPER-00158            
1 65776U 25217Q   26032.68630796  .00005144  00000+0  70032-3 0  9994
2 65776  51.8952 204.7829 0000612 138.5493 221.5516 14.80110991 19519
KUIPER-00163            
1 65777U 25217R   26032.88245499  .00007963  00000+0  10280-2 0  9998
2 65777  51.8953 206.3808 0000610 145.5403 214.5600 14.81718001 19505
KUIPER-00165            
1 65778U 25217S   26032.86670960 -.00001279  00000+0 -13893-3 0  9992
2 65778  51.8982 194.0076 0000824  78.9088 281.1967 14.79901053 19675
KUIPER-00166            
1 65779U 25217T   26032.91668981 -.00028410  00000+0 -30142-2 0  9990
2 65779  51.8962 181.6111 0003438 283.8681 305.1930 14.88494630  5036
KUIPER-00167            
1 65780U 25217U   26032.85589877 -.00004186  00000+0 -52052-3 0  9990
2 65780  51.8940 204.0337 0000455  50.5123 309.5879 14.79925792 19538
KUIPER-00168            
1 65781U 25217V   26032.91668981  .00007725  00000+0  10193-2 0  9991
2 65781  51.8988 186.2955 0000422 114.6497 104.6650 14.80834973  5637
KUIPER-00169            
1 65782U 25217W   26032.86941052 -.00001194  00000+0 -12781-3 0  9991
2 65782  51.9004 191.4964 0000602  73.0194 287.0835 14.79896139 19713
KUIPER-00170            
1 65783U 25217X   26032.86408003  .00005973  00000+0  81101-3 0  9995
2 65783  51.8977 196.5140 0000595 108.7310 251.3717 14.79976250 19649
KUIPER-00171            
1 65784U 25217Y   26032.87424884  .00628756  20261-3  87848-3 0  9991
2 65784  51.8424 152.1906 0004073 269.4798  90.5750 16.05273734 20241
KUIPER-00172            
1 65785U 25217Z   26032.91668981  .00021931  00000+0  13795-2 0  9991
2 65785  51.8828 182.4197 0003775 198.7545  90.6992 15.09134726  5523
KUIPER-00173            
1 65786U 25217AA  26032.81900481  .00003907  00000+0  51150-3 0  9996
2 65786  51.8999 191.5486 0000757 110.2396 249.8649 14.82344065 19706
KUIPER-00174            
1 65787U 25217AB  26032.91668981  .00005238  00000+0  69555-3 0  9991
2 65787  51.9022 186.3168 0000984 107.8451 289.0717 14.81135870  5753
